{
  "type": "FeatureCollection",
  "generated_at": "2026-08-10T12:09:48Z",
  "source": "Energistyrelsen (ENS) shape files, reprojected to WGS84",
  "features": [
    {
      "type": "Feature",
      "properties": {
        "Field": "Adda",
        "EndDate": "2042-07-08",
        "Label": "Adda",
        "name": "Adda",
        "slug": "adda"
      },
      "geometry": {
        "type": "Polygon",
        "coordinates": [
          [
            [
              4.73192,
              55.84933
            ],
            [
              4.79859,
              55.84934
            ],
            [
              4.79859,
              55.85767
            ],
            [
              4.88192,
              55.85767
            ],
            [
              4.88192,
              55.84934
            ],
            [
              4.89859,
              55.84934
            ],
            [
              4.89859,
              55.841
            ],
            [
              4.94859,
              55.841
            ],
            [
              4.94859,
              55.83267
            ],
            [
              4.98193,
              55.83267
            ],
            [
              4.98193,
              55.82434
            ],
            [
              4.9986,
              55.82434
            ],
            [
              4.9986,
              55.79934
            ],
            [
              4.98193,
              55.79934
            ],
            [
              4.98193,
              55.74933
            ],
            [
              4.8986,
              55.74933
            ],
            [
              4.89859,
              55.766
            ],
            [
              4.86526,
              55.766
            ],
            [
              4.86526,
              55.77433
            ],
            [
              4.73192,
              55.77433
            ],
            [
              4.73192,
              55.84933
            ]
          ]
        ]
      }
    },
    {
      "type": "Feature",
      "properties": {
        "Field": "Alma",
        "EndDate": "2042-07-08",
        "Label": "Alma",
        "name": "Alma",
        "slug": "alma"
      },
      "geometry": {
        "type": "Polygon",
        "coordinates": [
          [
            [
              5.18194,
              55.53266
            ],
            [
              5.24861,
              55.53266
            ],
            [
              5.24861,
              55.49933
            ],
            [
              5.29861,
              55.49933
            ],
            [
              5.29862,
              55.46599
            ],
            [
              5.18195,
              55.46599
            ],
            [
              5.18194,
              55.53266
            ]
          ]
        ]
      }
    },
    {
      "type": "Feature",
      "properties": {
        "Field": "Boje",
        "EndDate": "2042-07-08",
        "Label": "Boje",
        "name": "Boje",
        "slug": "boje"
      },
      "geometry": {
        "type": "Polygon",
        "coordinates": [
          [
            [
              4.61525,
              55.87433
            ],
            [
              4.74859,
              55.87434
            ],
            [
              4.74859,
              55.84934
            ],
            [
              4.73192,
              55.84933
            ],
            [
              4.73192,
              55.79933
            ],
            [
              4.61525,
              55.79933
            ],
            [
              4.61525,
              55.87433
            ]
          ]
        ]
      }
    },
    {
      "type": "Feature",
      "properties": {
        "Field": "Broder Tuck - 4/16 part",
        "EndDate": "2046-05-20",
        "DepthLimit": "4000 m",
        "Label": "Broder Tuck",
        "name": "Broder Tuck - 4/16 part",
        "slug": "broder_tuck"
      },
      "geometry": {
        "type": "Polygon",
        "coordinates": [
          [
            [
              4.8486,
              55.45488
            ],
            [
              4.81907,
              55.45488
            ],
            [
              4.81527,
              55.45727
            ],
            [
              4.81527,
              55.47432
            ],
            [
              4.8486,
              55.47432
            ],
            [
              4.8486,
              55.45488
            ]
          ]
        ]
      }
    },
    {
      "type": "Feature",
      "properties": {
        "Field": "Broder Tuck - 12/06 part",
        "EndDate": "2046-05-20",
        "DepthLimit": "4000 m",
        "name": "Broder Tuck - 12/06 part",
        "slug": "broder_tuck"
      },
      "geometry": {
        "type": "Polygon",
        "coordinates": [
          [
            [
              4.76527,
              55.54933
            ],
            [
              4.86527,
              55.51599
            ],
            [
              4.88194,
              55.51599
            ],
            [
              4.88194,
              55.49933
            ],
            [
              4.85694,
              55.49933
            ],
            [
              4.85694,
              55.48266
            ],
            [
              4.8486,
              55.48266
            ],
            [
              4.8486,
              55.47432
            ],
            [
              4.81527,
              55.47432
            ],
            [
              4.81527,
              55.45727
            ],
            [
              4.79027,
              55.47432
            ],
            [
              4.79027,
              55.48266
            ],
            [
              4.78194,
              55.48266
            ],
            [
              4.78194,
              55.49099
            ],
            [
              4.7736,
              55.49099
            ],
            [
              4.7736,
              55.49933
            ],
            [
              4.7486,
              55.49932
            ],
            [
              4.7486,
              55.51599
            ],
            [
              4.76527,
              55.51599
            ],
            [
              4.76527,
              55.54933
            ]
          ]
        ]
      }
    },
    {
      "type": "Feature",
      "properties": {
        "Field": "Cecilie",
        "EndDate": "2032-06-18",
        "DepthLimit": "2400 m",
        "Label": "Cecilie",
        "name": "Cecilie",
        "slug": "cecilie"
      },
      "geometry": {
        "type": "Polygon",
        "coordinates": [
          [
            [
              4.77357,
              56.41185
            ],
            [
              4.79023,
              56.40769
            ],
            [
              4.8069,
              56.39935
            ],
            [
              4.8069,
              56.39519
            ],
            [
              4.77357,
              56.38269
            ],
            [
              4.74857,
              56.38269
            ],
            [
              4.7319,
              56.39519
            ],
            [
              4.69857,
              56.39519
            ],
            [
              4.69023,
              56.41047
            ],
            [
              4.74857,
              56.43408
            ],
            [
              4.76107,
              56.42852
            ],
            [
              4.77357,
              56.41185
            ]
          ]
        ]
      }
    },
    {
      "type": "Feature",
      "properties": {
        "Field": "Dagmar",
        "EndDate": "2042-07-08",
        "Label": "Dagmar",
        "name": "Dagmar",
        "slug": "dagmar"
      },
      "geometry": {
        "type": "Polygon",
        "coordinates": [
          [
            [
              4.54859,
              55.59932
            ],
            [
              4.56526,
              55.59932
            ],
            [
              4.56526,
              55.60766
            ],
            [
              4.64859,
              55.60766
            ],
            [
              4.64859,
              55.59933
            ],
            [
              4.66526,
              55.59933
            ],
            [
              4.66526,
              55.54932
            ],
            [
              4.63193,
              55.54932
            ],
            [
              4.63193,
              55.54099
            ],
            [
              4.56347,
              55.54099
            ],
            [
              4.54859,
              55.55199
            ],
            [
              4.54859,
              55.59932
            ]
          ]
        ]
      }
    },
    {
      "type": "Feature",
      "properties": {
        "Field": "Dan",
        "EndDate": "2042-07-08",
        "Label": "Dan",
        "name": "Dan",
        "slug": "dan"
      },
      "geometry": {
        "type": "Polygon",
        "coordinates": [
          [
            [
              5.03194,
              55.49933
            ],
            [
              5.03194,
              55.51599
            ],
            [
              5.18194,
              55.516
            ],
            [
              5.18195,
              55.46599
            ],
            [
              5.19861,
              55.46599
            ],
            [
              5.19861,
              55.41599
            ],
            [
              5.18195,
              55.41599
            ],
            [
              5.18195,
              55.43266
            ],
            [
              5.04861,
              55.43266
            ],
            [
              5.04861,
              55.44932
            ],
            [
              4.99861,
              55.44932
            ],
            [
              4.99861,
              55.49933
            ],
            [
              5.03194,
              55.49933
            ]
          ]
        ]
      }
    },
    {
      "type": "Feature",
      "properties": {
        "Field": "Freja",
        "EndDate": "2042-07-08",
        "Label": "Freja",
        "name": "Freja",
        "slug": "freja"
      },
      "geometry": {
        "type": "Polygon",
        "coordinates": [
          [
            [
              3.65688,
              56.20517
            ],
            [
              3.76521,
              56.23628
            ],
            [
              3.76521,
              56.23267
            ],
            [
              3.78188,
              56.23267
            ],
            [
              3.78188,
              56.216
            ],
            [
              3.81522,
              56.216
            ],
            [
              3.81522,
              56.20767
            ],
            [
              3.84855,
              56.20767
            ],
            [
              3.84855,
              56.19934
            ],
            [
              3.87355,
              56.19934
            ],
            [
              3.87355,
              56.18267
            ],
            [
              3.74855,
              56.18267
            ],
            [
              3.74855,
              56.191
            ],
            [
              3.66521,
              56.191
            ],
            [
              3.66521,
              56.19933
            ],
            [
              3.65688,
              56.19933
            ],
            [
              3.65688,
              56.20517
            ]
          ]
        ]
      }
    },
    {
      "type": "Feature",
      "properties": {
        "Field": "Gorm",
        "EndDate": "2042-07-08",
        "Label": "Gorm",
        "name": "Gorm",
        "slug": "gorm"
      },
      "geometry": {
        "type": "Polygon",
        "coordinates": [
          [
            [
              4.71526,
              55.61599
            ],
            [
              4.81526,
              55.61599
            ],
            [
              4.81527,
              55.59933
            ],
            [
              4.83193,
              55.59933
            ],
            [
              4.83193,
              55.56599
            ],
            [
              4.7986,
              55.56599
            ],
            [
              4.7986,
              55.54933
            ],
            [
              4.76527,
              55.54932
            ],
            [
              4.76527,
              55.51599
            ],
            [
              4.73193,
              55.51599
            ],
            [
              4.73193,
              55.54932
            ],
            [
              4.6986,
              55.54932
            ],
            [
              4.69859,
              55.60766
            ],
            [
              4.71526,
              55.60766
            ],
            [
              4.71526,
              55.61599
            ]
          ]
        ]
      }
    },
    {
      "type": "Feature",
      "properties": {
        "Field": "Halfdan (Igor area)",
        "EndDate": "2042-07-08",
        "Label": "Halfdan NØ",
        "name": "Halfdan (Igor area)",
        "slug": "halfdan"
      },
      "geometry": {
        "type": "Polygon",
        "coordinates": [
          [
            [
              5.07975,
              55.62203
            ],
            [
              5.24641,
              55.62203
            ],
            [
              5.24642,
              55.53036
            ],
            [
              5.17975,
              55.53036
            ],
            [
              5.17975,
              55.51369
            ],
            [
              5.11309,
              55.51369
            ],
            [
              5.11309,
              55.54702
            ],
            [
              5.09642,
              55.54702
            ],
            [
              5.09642,
              55.56369
            ],
            [
              5.07975,
              55.56369
            ],
            [
              5.07975,
              55.62203
            ]
          ]
        ]
      }
    },
    {
      "type": "Feature",
      "properties": {
        "Field": "Halfdan (Sif area)",
        "EndDate": "2042-07-08",
        "name": "Halfdan (Sif area)",
        "slug": "halfdan"
      },
      "geometry": {
        "type": "Polygon",
        "coordinates": [
          [
            [
              4.96527,
              55.616
            ],
            [
              4.9986,
              55.616
            ],
            [
              4.9986,
              55.62433
            ],
            [
              5.08194,
              55.62433
            ],
            [
              5.08194,
              55.566
            ],
            [
              4.9986,
              55.56599
            ],
            [
              4.9986,
              55.58266
            ],
            [
              4.98194,
              55.58266
            ],
            [
              4.98194,
              55.59933
            ],
            [
              4.96527,
              55.59933
            ],
            [
              4.96527,
              55.616
            ]
          ]
        ]
      }
    },
    {
      "type": "Feature",
      "properties": {
        "Field": "Halfdan (Halfdan area)",
        "EndDate": "2042-07-08",
        "Label": "Halfdan",
        "name": "Halfdan (Halfdan area)",
        "slug": "halfdan"
      },
      "geometry": {
        "type": "Polygon",
        "coordinates": [
          [
            [
              4.86527,
              55.59933
            ],
            [
              4.98194,
              55.59933
            ],
            [
              4.98194,
              55.58266
            ],
            [
              4.9986,
              55.58266
            ],
            [
              4.9986,
              55.56599
            ],
            [
              5.09861,
              55.566
            ],
            [
              5.09861,
              55.54933
            ],
            [
              5.11527,
              55.54933
            ],
            [
              5.11528,
              55.51599
            ],
            [
              5.03194,
              55.51599
            ],
            [
              5.03194,
              55.49933
            ],
            [
              4.93194,
              55.49933
            ],
            [
              4.93194,
              55.51599
            ],
            [
              4.9486,
              55.51599
            ],
            [
              4.9486,
              55.54933
            ],
            [
              4.93194,
              55.54933
            ],
            [
              4.93194,
              55.56599
            ],
            [
              4.86527,
              55.56599
            ],
            [
              4.86527,
              55.59933
            ]
          ]
        ]
      }
    },
    {
      "type": "Feature",
      "properties": {
        "Field": "Harald",
        "EndDate": "2042-07-08",
        "Label": "Harald",
        "name": "Harald",
        "slug": "harald"
      },
      "geometry": {
        "type": "Polygon",
        "coordinates": [
          [
            [
              4.18189,
              56.30768
            ],
            [
              4.18189,
              56.33268
            ],
            [
              4.17355,
              56.33268
            ],
            [
              4.17355,
              56.35296
            ],
            [
              4.22022,
              56.36601
            ],
            [
              4.23189,
              56.36601
            ],
            [
              4.23189,
              56.35768
            ],
            [
              4.25689,
              56.35768
            ],
            [
              4.25689,
              56.36601
            ],
            [
              4.31522,
              56.36601
            ],
            [
              4.31522,
              56.35768
            ],
            [
              4.32356,
              56.35768
            ],
            [
              4.32356,
              56.31601
            ],
            [
              4.31523,
              56.31601
            ],
            [
              4.31523,
              56.30768
            ],
            [
              4.29856,
              56.30768
            ],
            [
              4.29856,
              56.29935
            ],
            [
              4.27356,
              56.29935
            ],
            [
              4.27356,
              56.30768
            ],
            [
              4.18189,
              56.30768
            ]
          ]
        ]
      }
    },
    {
      "type": "Feature",
      "properties": {
        "Field": "Hejre - 1/06 part",
        "EndDate": "2040-10-15",
        "DepthLimit": "6000 m",
        "name": "Hejre - 1/06 part",
        "slug": "hejre"
      },
      "geometry": {
        "type": "MultiPolygon",
        "coordinates": [
          [
            [
              [
                3.88188,
                56.2285
              ],
              [
                3.85688,
                56.2285
              ],
              [
                3.83605,
                56.23684
              ],
              [
                3.83605,
                56.24934
              ],
              [
                3.88188,
                56.24934
              ],
              [
                3.88188,
                56.2285
              ]
            ]
          ],
          [
            [
              [
                4.07772,
                56.22017
              ],
              [
                4.04019,
                56.22017
              ],
              [
                4.08189,
                56.24101
              ],
              [
                4.08189,
                56.25767
              ],
              [
                4.0569,
                56.27851
              ],
              [
                4.08189,
                56.27851
              ],
              [
                4.12356,
                56.24934
              ],
              [
                4.12356,
                56.22851
              ],
              [
                4.07772,
                56.22017
              ]
            ]
          ]
        ]
      }
    },
    {
      "type": "Feature",
      "properties": {
        "Field": "Hejre - 5/98 part",
        "EndDate": "2040-10-15",
        "DepthLimit": "6000 m",
        "Label": "Hejre",
        "name": "Hejre - 5/98 part",
        "slug": "hejre"
      },
      "geometry": {
        "type": "Polygon",
        "coordinates": [
          [
            [
              3.83605,
              56.25351
            ],
            [
              3.87772,
              56.25351
            ],
            [
              3.87772,
              56.26863
            ],
            [
              3.95598,
              56.29101
            ],
            [
              3.97355,
              56.29101
            ],
            [
              4.00689,
              56.27851
            ],
            [
              4.0569,
              56.27851
            ],
            [
              4.08189,
              56.25767
            ],
            [
              4.08189,
              56.24101
            ],
            [
              4.04019,
              56.22017
            ],
            [
              3.96522,
              56.22017
            ],
            [
              3.96522,
              56.22851
            ],
            [
              3.88188,
              56.2285
            ],
            [
              3.88188,
              56.24934
            ],
            [
              3.83605,
              56.24934
            ],
            [
              3.83605,
              56.25351
            ]
          ]
        ]
      }
    },
    {
      "type": "Feature",
      "properties": {
        "Field": "Kraka",
        "EndDate": "2042-07-08",
        "Label": "Kraka",
        "name": "Kraka",
        "slug": "kraka"
      },
      "geometry": {
        "type": "Polygon",
        "coordinates": [
          [
            [
              4.99861,
              55.44932
            ],
            [
              5.04861,
              55.44932
            ],
            [
              5.04861,
              55.43266
            ],
            [
              5.18195,
              55.43266
            ],
            [
              5.18195,
              55.37432
            ],
            [
              4.99861,
              55.37432
            ],
            [
              4.99861,
              55.44932
            ]
          ]
        ]
      }
    },
    {
      "type": "Feature",
      "properties": {
        "Field": "Lille John",
        "EndDate": "2046-05-20",
        "DepthLimit": "4000 m",
        "Label": "Lille John",
        "name": "Lille John",
        "slug": "lille_john"
      },
      "geometry": {
        "type": "Polygon",
        "coordinates": [
          [
            [
              4.8236,
              55.44516
            ],
            [
              4.8236,
              55.44099
            ],
            [
              4.84027,
              55.44099
            ],
            [
              4.84027,
              55.43266
            ],
            [
              4.85277,
              55.43266
            ],
            [
              4.85277,
              55.42849
            ],
            [
              4.85694,
              55.42849
            ],
            [
              4.85694,
              55.41599
            ],
            [
              4.86527,
              55.41599
            ],
            [
              4.86527,
              55.35878
            ],
            [
              4.75694,
              55.4003
            ],
            [
              4.75694,
              55.42432
            ],
            [
              4.76527,
              55.42432
            ],
            [
              4.76527,
              55.43265
            ],
            [
              4.7736,
              55.43265
            ],
            [
              4.7736,
              55.44099
            ],
            [
              4.79027,
              55.44099
            ],
            [
              4.79027,
              55.44516
            ],
            [
              4.8236,
              55.44516
            ]
          ]
        ]
      }
    },
    {
      "type": "Feature",
      "properties": {
        "Field": "Lulita - 1/90 part",
        "EndDate": "2026-03-08",
        "DepthLimit": "3750 m",
        "name": "Lulita - 1/90 part",
        "slug": "lulita"
      },
      "geometry": {
        "type": "Polygon",
        "coordinates": [
          [
            [
              4.24982,
              56.37435
            ],
            [
              4.28189,
              56.38337
            ],
            [
              4.29022,
              56.37435
            ],
            [
              4.24982,
              56.37435
            ]
          ]
        ]
      }
    },
    {
      "type": "Feature",
      "properties": {
        "Field": "Lulita - 7/86 part",
        "EndDate": "2026-03-08",
        "DepthLimit": "3750 m",
        "Label": "Lulita",
        "name": "Lulita - 7/86 part",
        "slug": "lulita"
      },
      "geometry": {
        "type": "Polygon",
        "coordinates": [
          [
            [
              4.24855,
              56.37399
            ],
            [
              4.29022,
              56.37435
            ],
            [
              4.29856,
              56.36601
            ],
            [
              4.24856,
              56.36601
            ],
            [
              4.24855,
              56.37399
            ]
          ]
        ]
      }
    },
    {
      "type": "Feature",
      "properties": {
        "Field": "Nini",
        "EndDate": "2032-06-18",
        "DepthLimit": "1950 m",
        "Label": "Nini",
        "name": "Nini",
        "slug": "nini"
      },
      "geometry": {
        "type": "Polygon",
        "coordinates": [
          [
            [
              5.26524,
              56.6077
            ],
            [
              5.25691,
              56.61603
            ],
            [
              5.25691,
              56.64104
            ],
            [
              5.27357,
              56.6452
            ],
            [
              5.29024,
              56.6452
            ],
            [
              5.31524,
              56.64937
            ],
            [
              5.31524,
              56.6577
            ],
            [
              5.36524,
              56.67437
            ],
            [
              5.37357,
              56.69521
            ],
            [
              5.37357,
              56.69925
            ],
            [
              5.4005,
              56.70771
            ],
            [
              5.44024,
              56.70771
            ],
            [
              5.45691,
              56.69104
            ],
            [
              5.37357,
              56.6577
            ],
            [
              5.33191,
              56.6202
            ],
            [
              5.26524,
              56.6077
            ]
          ]
        ]
      }
    },
    {
      "type": "Feature",
      "properties": {
        "Field": "Regnar",
        "EndDate": "2042-07-08",
        "Label": "Regnar",
        "name": "Regnar",
        "slug": "regnar"
      },
      "geometry": {
        "type": "Polygon",
        "coordinates": [
          [
            [
              5.18195,
              55.41599
            ],
            [
              5.29862,
              55.41599
            ],
            [
              5.29862,
              55.37433
            ],
            [
              5.18195,
              55.37432
            ],
            [
              5.18195,
              55.41599
            ]
          ]
        ]
      }
    },
    {
      "type": "Feature",
      "properties": {
        "Field": "Roar",
        "EndDate": "2042-07-08",
        "Label": "Roar",
        "name": "Roar",
        "slug": "roar"
      },
      "geometry": {
        "type": "Polygon",
        "coordinates": [
          [
            [
              4.59859,
              55.79933
            ],
            [
              4.73192,
              55.79933
            ],
            [
              4.73192,
              55.77433
            ],
            [
              4.69859,
              55.77433
            ],
            [
              4.69859,
              55.74933
            ],
            [
              4.68192,
              55.74933
            ],
            [
              4.68193,
              55.66599
            ],
            [
              4.64859,
              55.66599
            ],
            [
              4.64859,
              55.68266
            ],
            [
              4.59859,
              55.68266
            ],
            [
              4.59859,
              55.79933
            ]
          ]
        ]
      }
    },
    {
      "type": "Feature",
      "properties": {
        "Field": "Rolf",
        "EndDate": "2042-07-08",
        "Label": "Rolf",
        "name": "Rolf",
        "slug": "rolf"
      },
      "geometry": {
        "type": "Polygon",
        "coordinates": [
          [
            [
              4.49859,
              55.62432
            ],
            [
              4.53192,
              55.62432
            ],
            [
              4.53192,
              55.59932
            ],
            [
              4.54859,
              55.59932
            ],
            [
              4.54859,
              55.58266
            ],
            [
              4.53192,
              55.58266
            ],
            [
              4.53193,
              55.5643
            ],
            [
              4.45058,
              55.62432
            ],
            [
              4.45692,
              55.62432
            ],
            [
              4.45692,
              55.63266
            ],
            [
              4.49884,
              55.63266
            ],
            [
              4.49859,
              55.62432
            ]
          ]
        ]
      }
    },
    {
      "type": "Feature",
      "properties": {
        "Field": "Siri",
        "EndDate": "2027-07-18",
        "DepthLimit": "2260 m",
        "Label": "Siri",
        "name": "Siri",
        "slug": "siri"
      },
      "geometry": {
        "type": "Polygon",
        "coordinates": [
          [
            [
              4.8569,
              56.49936
            ],
            [
              4.8819,
              56.49936
            ],
            [
              4.8819,
              56.52019
            ],
            [
              4.96524,
              56.52019
            ],
            [
              4.96524,
              56.49936
            ],
            [
              5.11524,
              56.5327
            ],
            [
              5.11524,
              56.51603
            ],
            [
              5.06524,
              56.49936
            ],
            [
              5.04024,
              56.49936
            ],
            [
              4.99857,
              56.48269
            ],
            [
              4.99857,
              56.46603
            ],
            [
              4.97357,
              56.46186
            ],
            [
              4.94857,
              56.46603
            ],
            [
              4.9069,
              56.46603
            ],
            [
              4.8819,
              56.45769
            ],
            [
              4.8569,
              56.46602
            ],
            [
              4.8569,
              56.49936
            ]
          ]
        ]
      }
    },
    {
      "type": "Feature",
      "properties": {
        "Field": "Skjold",
        "EndDate": "2042-07-08",
        "Label": "Skjold",
        "name": "Skjold",
        "slug": "skjold"
      },
      "geometry": {
        "type": "Polygon",
        "coordinates": [
          [
            [
              4.86527,
              55.56599
            ],
            [
              4.93194,
              55.56599
            ],
            [
              4.93194,
              55.54933
            ],
            [
              4.9486,
              55.54933
            ],
            [
              4.9486,
              55.51599
            ],
            [
              4.93194,
              55.51599
            ],
            [
              4.93194,
              55.49933
            ],
            [
              4.88194,
              55.49932
            ],
            [
              4.88194,
              55.51599
            ],
            [
              4.86527,
              55.51599
            ],
            [
              4.86527,
              55.56599
            ]
          ]
        ]
      }
    },
    {
      "type": "Feature",
      "properties": {
        "Field": "Solsort - 3/09 part",
        "EndDate": "2045-06-25",
        "DepthLimit": "3200 m",
        "Label": "Solsort",
        "name": "Solsort - 3/09 part",
        "slug": "solsort"
      },
      "geometry": {
        "type": "Polygon",
        "coordinates": [
          [
            [
              4.25606,
              56.12372
            ],
            [
              4.21856,
              56.12371
            ],
            [
              4.26855,
              56.14983
            ],
            [
              4.29772,
              56.18316
            ],
            [
              4.29772,
              56.12483
            ],
            [
              4.25494,
              56.12483
            ],
            [
              4.25606,
              56.12372
            ]
          ]
        ]
      }
    },
    {
      "type": "Feature",
      "properties": {
        "Field": "Solsort - 4/98 part",
        "EndDate": "2045-06-25",
        "DepthLimit": "3200 m",
        "name": "Solsort - 4/98 part",
        "slug": "solsort"
      },
      "geometry": {
        "type": "Polygon",
        "coordinates": [
          [
            [
              4.34495,
              56.1665
            ],
            [
              4.34495,
              56.1265
            ],
            [
              4.26304,
              56.11649
            ],
            [
              4.25494,
              56.12483
            ],
            [
              4.29772,
              56.12483
            ],
            [
              4.29772,
              56.18316
            ],
            [
              4.33105,
              56.18316
            ],
            [
              4.33106,
              56.17483
            ],
            [
              4.34495,
              56.1665
            ]
          ]
        ]
      }
    },
    {
      "type": "Feature",
      "properties": {
        "Field": "Svend",
        "EndDate": "2042-07-08",
        "Label": "Svend",
        "name": "Svend",
        "slug": "svend"
      },
      "geometry": {
        "type": "Polygon",
        "coordinates": [
          [
            [
              4.1819,
              56.12434
            ],
            [
              4.1819,
              56.13267
            ],
            [
              4.16523,
              56.13267
            ],
            [
              4.16523,
              56.14934
            ],
            [
              4.15689,
              56.14934
            ],
            [
              4.15689,
              56.16601
            ],
            [
              4.14856,
              56.16601
            ],
            [
              4.14856,
              56.17434
            ],
            [
              4.13189,
              56.17434
            ],
            [
              4.13189,
              56.19101
            ],
            [
              4.12356,
              56.19101
            ],
            [
              4.12356,
              56.20767
            ],
            [
              4.13189,
              56.20767
            ],
            [
              4.13189,
              56.21601
            ],
            [
              4.14856,
              56.21601
            ],
            [
              4.14856,
              56.22434
            ],
            [
              4.19856,
              56.22434
            ],
            [
              4.19856,
              56.21601
            ],
            [
              4.20689,
              56.21601
            ],
            [
              4.20689,
              56.20767
            ],
            [
              4.21523,
              56.20767
            ],
            [
              4.21523,
              56.19934
            ],
            [
              4.22356,
              56.19934
            ],
            [
              4.22356,
              56.14101
            ],
            [
              4.21523,
              56.14101
            ],
            [
              4.21523,
              56.13267
            ],
            [
              4.19856,
              56.13267
            ],
            [
              4.19856,
              56.12434
            ],
            [
              4.1819,
              56.12434
            ]
          ]
        ]
      }
    },
    {
      "type": "Feature",
      "properties": {
        "Field": "South Arne - western part",
        "EndDate": "2027-02-17",
        "DepthLimit": "5100 m",
        "Label": "South Arne",
        "name": "South Arne - western part",
        "slug": "syd_arne"
      },
      "geometry": {
        "type": "Polygon",
        "coordinates": [
          [
            [
              4.17442,
              56.12322
            ],
            [
              4.24942,
              56.12322
            ],
            [
              4.24942,
              56.08266
            ],
            [
              4.28276,
              56.08266
            ],
            [
              4.28276,
              55.99933
            ],
            [
              4.24942,
              55.99933
            ],
            [
              4.17442,
              56.08266
            ],
            [
              4.17442,
              56.12322
            ]
          ]
        ]
      }
    },
    {
      "type": "Feature",
      "properties": {
        "Field": "South Arne - eastern part",
        "EndDate": "2027-02-17",
        "DepthLimit": "3200 m",
        "name": "South Arne - eastern part",
        "slug": "syd_arne"
      },
      "geometry": {
        "type": "Polygon",
        "coordinates": [
          [
            [
              4.24856,
              56.12323
            ],
            [
              4.2569,
              56.12323
            ],
            [
              4.34024,
              56.03684
            ],
            [
              4.34024,
              56.01823
            ],
            [
              4.29024,
              55.99933
            ],
            [
              4.2819,
              55.99933
            ],
            [
              4.2819,
              56.08267
            ],
            [
              4.24857,
              56.08267
            ],
            [
              4.24856,
              56.12323
            ]
          ]
        ]
      }
    },
    {
      "type": "Feature",
      "properties": {
        "Field": "Tyra",
        "EndDate": "2042-07-08",
        "Label": "Tyra",
        "name": "Tyra",
        "slug": "tyra"
      },
      "geometry": {
        "type": "Polygon",
        "coordinates": [
          [
            [
              4.69859,
              55.77433
            ],
            [
              4.86526,
              55.77433
            ],
            [
              4.86526,
              55.766
            ],
            [
              4.89859,
              55.766
            ],
            [
              4.8986,
              55.74933
            ],
            [
              4.96526,
              55.74933
            ],
            [
              4.96526,
              55.73267
            ],
            [
              4.9486,
              55.73267
            ],
            [
              4.9486,
              55.716
            ],
            [
              4.91526,
              55.716
            ],
            [
              4.91526,
              55.69933
            ],
            [
              4.8486,
              55.69933
            ],
            [
              4.8486,
              55.68266
            ],
            [
              4.81526,
              55.68266
            ],
            [
              4.81526,
              55.64933
            ],
            [
              4.74859,
              55.64933
            ],
            [
              4.7486,
              55.61599
            ],
            [
              4.73193,
              55.61599
            ],
            [
              4.73193,
              55.64933
            ],
            [
              4.69859,
              55.64933
            ],
            [
              4.69859,
              55.66599
            ],
            [
              4.68193,
              55.66599
            ],
            [
              4.68192,
              55.74933
            ],
            [
              4.69859,
              55.74933
            ],
            [
              4.69859,
              55.77433
            ]
          ]
        ]
      }
    },
    {
      "type": "Feature",
      "properties": {
        "Field": "Tyra Southeast",
        "EndDate": "2042-07-08",
        "Label": "Tyra SØ",
        "name": "Tyra Southeast",
        "slug": "tyra_se"
      },
      "geometry": {
        "type": "Polygon",
        "coordinates": [
          [
            [
              4.81526,
              55.68266
            ],
            [
              4.8486,
              55.68266
            ],
            [
              4.8486,
              55.69933
            ],
            [
              4.91526,
              55.69933
            ],
            [
              4.91526,
              55.716
            ],
            [
              4.98193,
              55.716
            ],
            [
              4.98193,
              55.68267
            ],
            [
              4.9986,
              55.68267
            ],
            [
              4.9986,
              55.616
            ],
            [
              4.96527,
              55.616
            ],
            [
              4.96527,
              55.59933
            ],
            [
              4.81527,
              55.59933
            ],
            [
              4.81526,
              55.61599
            ],
            [
              4.7486,
              55.61599
            ],
            [
              4.74859,
              55.64933
            ],
            [
              4.81526,
              55.64933
            ],
            [
              4.81526,
              55.68266
            ]
          ]
        ]
      }
    },
    {
      "type": "Feature",
      "properties": {
        "Field": "Valdemar",
        "EndDate": "2042-07-08",
        "Label": "Valdemar",
        "name": "Valdemar",
        "slug": "valdemar"
      },
      "geometry": {
        "type": "Polygon",
        "coordinates": [
          [
            [
              4.49858,
              55.87433
            ],
            [
              4.61525,
              55.87433
            ],
            [
              4.61525,
              55.79933
            ],
            [
              4.59859,
              55.79933
            ],
            [
              4.59859,
              55.716
            ],
            [
              4.51525,
              55.71599
            ],
            [
              4.51525,
              55.74933
            ],
            [
              4.54859,
              55.74933
            ],
            [
              4.54859,
              55.766
            ],
            [
              4.49858,
              55.766
            ],
            [
              4.49858,
              55.87433
            ]
          ]
        ]
      }
    }
  ]
}
