{
  "type": "FeatureCollection",
  "generated_at": "2026-08-10T12:09:48Z",
  "source": "Energistyrelsen (ENS) shape files, reprojected to WGS84",
  "features": [
    {
      "type": "Feature",
      "properties": {
        "LICENCE": "DUC",
        "POLYGON_NA": "GERT",
        "URL": "1962_01",
        "OPERATOR": "Total E&P Danmark A/S",
        "Area": 44.7751359595,
        "SIG": "SC",
        "Operator_1": "TotalEnergies EP Danmark A/S"
      },
      "geometry": {
        "type": "Polygon",
        "coordinates": [
          [
            [
              3.65688,
              56.20517
            ],
            [
              3.76521,
              56.23628
            ],
            [
              3.76521,
              56.23267
            ],
            [
              3.78188,
              56.23267
            ],
            [
              3.78188,
              56.216
            ],
            [
              3.81522,
              56.216
            ],
            [
              3.81522,
              56.20767
            ],
            [
              3.84855,
              56.20767
            ],
            [
              3.84855,
              56.19934
            ],
            [
              3.87355,
              56.19934
            ],
            [
              3.87355,
              56.18267
            ],
            [
              3.74855,
              56.18267
            ],
            [
              3.74855,
              56.191
            ],
            [
              3.66521,
              56.191
            ],
            [
              3.66521,
              56.19933
            ],
            [
              3.65688,
              56.19933
            ],
            [
              3.65688,
              56.20517
            ]
          ]
        ]
      }
    },
    {
      "type": "Feature",
      "properties": {
        "LICENCE": "DUC",
        "POLYGON_NA": "ROLF",
        "URL": "1962_01",
        "OPERATOR": "Total E&P Danmark A/S",
        "Area": 8.42250560691,
        "SIG": "SC",
        "Operator_1": "TotalEnergies EP Danmark A/S"
      },
      "geometry": {
        "type": "Polygon",
        "coordinates": [
          [
            [
              4.45692,
              55.63266
            ],
            [
              4.49859,
              55.63266
            ],
            [
              4.49859,
              55.58877
            ],
            [
              4.45053,
              55.62432
            ],
            [
              4.45692,
              55.62432
            ],
            [
              4.45692,
              55.63266
            ]
          ]
        ]
      }
    },
    {
      "type": "Feature",
      "properties": {
        "LICENCE": "DUC",
        "POLYGON_NA": "SVEND",
        "URL": "1962_01",
        "OPERATOR": "Total E&P Danmark A/S",
        "Area": 47.9916625618,
        "SIG": "SC",
        "Operator_1": "TotalEnergies EP Danmark A/S"
      },
      "geometry": {
        "type": "Polygon",
        "coordinates": [
          [
            [
              4.1819,
              56.12434
            ],
            [
              4.1819,
              56.13267
            ],
            [
              4.16523,
              56.13267
            ],
            [
              4.16523,
              56.14934
            ],
            [
              4.15689,
              56.14934
            ],
            [
              4.15689,
              56.16601
            ],
            [
              4.14856,
              56.16601
            ],
            [
              4.14856,
              56.17434
            ],
            [
              4.13189,
              56.17434
            ],
            [
              4.13189,
              56.19101
            ],
            [
              4.12356,
              56.19101
            ],
            [
              4.12356,
              56.20767
            ],
            [
              4.13189,
              56.20767
            ],
            [
              4.13189,
              56.21601
            ],
            [
              4.14856,
              56.21601
            ],
            [
              4.14856,
              56.22434
            ],
            [
              4.19856,
              56.22434
            ],
            [
              4.19856,
              56.21601
            ],
            [
              4.20689,
              56.21601
            ],
            [
              4.20689,
              56.20767
            ],
            [
              4.21523,
              56.20767
            ],
            [
              4.21523,
              56.19934
            ],
            [
              4.22356,
              56.19934
            ],
            [
              4.22356,
              56.14101
            ],
            [
              4.21523,
              56.14101
            ],
            [
              4.21523,
              56.13267
            ],
            [
              4.19856,
              56.13267
            ],
            [
              4.19856,
              56.12434
            ],
            [
              4.1819,
              56.12434
            ]
          ]
        ]
      }
    },
    {
      "type": "Feature",
      "properties": {
        "LICENCE": "DUC",
        "POLYGON_NA": "HARALD",
        "URL": "1962_01",
        "OPERATOR": "Total E&P Danmark A/S",
        "Area": 55.7385971568,
        "SIG": "SC",
        "Operator_1": "TotalEnergies EP Danmark A/S"
      },
      "geometry": {
        "type": "Polygon",
        "coordinates": [
          [
            [
              4.18189,
              56.30768
            ],
            [
              4.18189,
              56.33268
            ],
            [
              4.17355,
              56.33268
            ],
            [
              4.17355,
              56.35296
            ],
            [
              4.22022,
              56.36601
            ],
            [
              4.23189,
              56.36601
            ],
            [
              4.23189,
              56.35768
            ],
            [
              4.25689,
              56.35768
            ],
            [
              4.25689,
              56.36601
            ],
            [
              4.31522,
              56.36601
            ],
            [
              4.31522,
              56.35768
            ],
            [
              4.32356,
              56.35768
            ],
            [
              4.32356,
              56.31601
            ],
            [
              4.31523,
              56.31601
            ],
            [
              4.31523,
              56.30768
            ],
            [
              4.29856,
              56.30768
            ],
            [
              4.29856,
              56.29935
            ],
            [
              4.27356,
              56.29935
            ],
            [
              4.27356,
              56.30768
            ],
            [
              4.18189,
              56.30768
            ]
          ]
        ]
      }
    },
    {
      "type": "Feature",
      "properties": {
        "LICENCE": "1/90",
        "POLYGON_NA": "LULITA",
        "URL": "1990_01",
        "OPERATOR": "INEOS E&P A/S",
        "Area": 1.23358061196,
        "DEPTH_LIMI": "Above 3750 m",
        "SIG": "LA1",
        "Operator_1": "INEOS E&P A/S"
      },
      "geometry": {
        "type": "Polygon",
        "coordinates": [
          [
            [
              4.24982,
              56.37435
            ],
            [
              4.28189,
              56.38337
            ],
            [
              4.29022,
              56.37435
            ],
            [
              4.24982,
              56.37435
            ]
          ]
        ]
      }
    },
    {
      "type": "Feature",
      "properties": {
        "LICENCE": "7/86",
        "POLYGON_NA": "LULITA",
        "URL": "1986_07_Lulita",
        "OPERATOR": "INEOS E&P A/S",
        "Area": 2.62476237441,
        "DEPTH_LIMI": "Above 3750 m",
        "SIG": "LA1",
        "Operator_1": "INEOS E&P A/S"
      },
      "geometry": {
        "type": "Polygon",
        "coordinates": [
          [
            [
              4.24855,
              56.37399
            ],
            [
              4.29022,
              56.37435
            ],
            [
              4.29856,
              56.36601
            ],
            [
              4.24856,
              56.36601
            ],
            [
              4.24855,
              56.37399
            ]
          ]
        ]
      }
    },
    {
      "type": "Feature",
      "properties": {
        "LICENCE": "7/89",
        "POLYGON_NA": "SOUTH ARNE DEL. WEST",
        "URL": "1989_07",
        "OPERATOR": "INEOS E&P A/S",
        "Area": 61.9778829121,
        "DEPTH_LIMI": "Above 5100 m",
        "SIG": "LA1",
        "Operator_1": "INEOS E&P A/S"
      },
      "geometry": {
        "type": "Polygon",
        "coordinates": [
          [
            [
              4.17442,
              56.12322
            ],
            [
              4.24942,
              56.12322
            ],
            [
              4.24942,
              56.08266
            ],
            [
              4.28276,
              56.08266
            ],
            [
              4.28276,
              55.99933
            ],
            [
              4.24942,
              55.99933
            ],
            [
              4.17442,
              56.08266
            ],
            [
              4.17442,
              56.12322
            ]
          ]
        ]
      }
    },
    {
      "type": "Feature",
      "properties": {
        "LICENCE": "7/89",
        "POLYGON_NA": "SOUTH ARNE DEL. EAST",
        "URL": "1989_07",
        "OPERATOR": "INEOS E&P A/S",
        "Area": 31.2689734507,
        "DEPTH_LIMI": "Above 3200 m",
        "SIG": "LA1",
        "Operator_1": "INEOS E&P A/S"
      },
      "geometry": {
        "type": "Polygon",
        "coordinates": [
          [
            [
              4.24856,
              56.12323
            ],
            [
              4.2569,
              56.12323
            ],
            [
              4.34024,
              56.03684
            ],
            [
              4.34024,
              56.01823
            ],
            [
              4.29024,
              55.99933
            ],
            [
              4.2819,
              55.99933
            ],
            [
              4.2819,
              56.08267
            ],
            [
              4.24857,
              56.08267
            ],
            [
              4.24856,
              56.12323
            ]
          ]
        ]
      }
    },
    {
      "type": "Feature",
      "properties": {
        "LICENCE": "16/98",
        "POLYGON_NA": "CECILIE",
        "URL": "1998_16",
        "OPERATOR": "INEOS E&P A/S",
        "Area": 22.5880649879,
        "DEPTH_LIMI": "Above 2400 m",
        "SIG": "LA1",
        "Operator_1": "INEOS E&P A/S"
      },
      "geometry": {
        "type": "Polygon",
        "coordinates": [
          [
            [
              4.77357,
              56.41185
            ],
            [
              4.79023,
              56.40769
            ],
            [
              4.8069,
              56.39935
            ],
            [
              4.8069,
              56.39519
            ],
            [
              4.77357,
              56.38269
            ],
            [
              4.74857,
              56.38269
            ],
            [
              4.7319,
              56.39519
            ],
            [
              4.69857,
              56.39519
            ],
            [
              4.69023,
              56.41047
            ],
            [
              4.74857,
              56.43408
            ],
            [
              4.76107,
              56.42852
            ],
            [
              4.77357,
              56.41185
            ]
          ]
        ]
      }
    },
    {
      "type": "Feature",
      "properties": {
        "LICENCE": "DUC",
        "URL": "1962_01",
        "OPERATOR": "Total E&P Danmark A/S",
        "Area": 63.2296320575,
        "SIG": "SC",
        "Operator_1": "TotalEnergies EP Danmark A/S"
      },
      "geometry": {
        "type": "Polygon",
        "coordinates": [
          [
            [
              4.56526,
              55.59932
            ],
            [
              4.56526,
              55.60766
            ],
            [
              4.64859,
              55.60766
            ],
            [
              4.64859,
              55.59933
            ],
            [
              4.66526,
              55.59933
            ],
            [
              4.66526,
              55.54932
            ],
            [
              4.63193,
              55.54932
            ],
            [
              4.63193,
              55.54099
            ],
            [
              4.56347,
              55.54099
            ],
            [
              4.54859,
              55.55199
            ],
            [
              4.54859,
              55.58266
            ],
            [
              4.53192,
              55.58266
            ],
            [
              4.53193,
              55.5643
            ],
            [
              4.49859,
              55.58889
            ],
            [
              4.49859,
              55.62432
            ],
            [
              4.53192,
              55.62432
            ],
            [
              4.53192,
              55.59932
            ],
            [
              4.56526,
              55.59932
            ]
          ]
        ]
      }
    },
    {
      "type": "Feature",
      "properties": {
        "LICENCE": "DUC",
        "URL": "1962_01",
        "OPERATOR": "Total E&P Danmark A/S",
        "Area": 1415.56127614,
        "SIG": "SC",
        "Operator_1": "TotalEnergies EP Danmark A/S"
      },
      "geometry": {
        "type": "Polygon",
        "coordinates": [
          [
            [
              4.49641,
              55.87202
            ],
            [
              4.7464,
              55.87203
            ],
            [
              4.7464,
              55.84702
            ],
            [
              4.7964,
              55.84703
            ],
            [
              4.7964,
              55.85536
            ],
            [
              4.87973,
              55.85536
            ],
            [
              4.87973,
              55.84703
            ],
            [
              4.8964,
              55.84703
            ],
            [
              4.8964,
              55.8387
            ],
            [
              4.9464,
              55.8387
            ],
            [
              4.9464,
              55.83036
            ],
            [
              4.97973,
              55.83036
            ],
            [
              4.97973,
              55.82203
            ],
            [
              4.9964,
              55.82203
            ],
            [
              4.9964,
              55.79703
            ],
            [
              4.97973,
              55.79703
            ],
            [
              4.97974,
              55.74703
            ],
            [
              4.96307,
              55.74703
            ],
            [
              4.96307,
              55.73036
            ],
            [
              4.94641,
              55.73036
            ],
            [
              4.94641,
              55.71369
            ],
            [
              4.97974,
              55.71369
            ],
            [
              4.97974,
              55.68036
            ],
            [
              4.99641,
              55.68036
            ],
            [
              4.99642,
              55.62202
            ],
            [
              5.24641,
              55.62203
            ],
            [
              5.24642,
              55.49703
            ],
            [
              5.37975,
              55.49703
            ],
            [
              5.37975,
              55.43036
            ],
            [
              5.36309,
              55.43036
            ],
            [
              5.36309,
              55.37203
            ],
            [
              4.99644,
              55.37202
            ],
            [
              4.99643,
              55.49702
            ],
            [
              4.87976,
              55.49702
            ],
            [
              4.87976,
              55.51368
            ],
            [
              4.8631,
              55.51368
            ],
            [
              4.86309,
              55.59702
            ],
            [
              4.82976,
              55.59702
            ],
            [
              4.82976,
              55.56368
            ],
            [
              4.79643,
              55.56368
            ],
            [
              4.79643,
              55.54702
            ],
            [
              4.7631,
              55.54701
            ],
            [
              4.7631,
              55.51368
            ],
            [
              4.72977,
              55.51368
            ],
            [
              4.72976,
              55.54701
            ],
            [
              4.69643,
              55.54701
            ],
            [
              4.69643,
              55.60535
            ],
            [
              4.71309,
              55.60535
            ],
            [
              4.71309,
              55.61368
            ],
            [
              4.72976,
              55.61368
            ],
            [
              4.72976,
              55.64702
            ],
            [
              4.69642,
              55.64702
            ],
            [
              4.69642,
              55.66368
            ],
            [
              4.64642,
              55.66368
            ],
            [
              4.64642,
              55.68035
            ],
            [
              4.59642,
              55.68035
            ],
            [
              4.59642,
              55.71368
            ],
            [
              4.51309,
              55.71368
            ],
            [
              4.51309,
              55.74701
            ],
            [
              4.54642,
              55.74701
            ],
            [
              4.54642,
              55.76368
            ],
            [
              4.49642,
              55.76368
            ],
            [
              4.49641,
              55.87202
            ]
          ],
          [
            [
              5.19643,
              55.41369
            ],
            [
              5.24643,
              55.41369
            ],
            [
              5.24642,
              55.46369
            ],
            [
              5.19642,
              55.46369
            ],
            [
              5.19643,
              55.41369
            ]
          ]
        ]
      }
    },
    {
      "type": "Feature",
      "properties": {
        "LICENCE": "4/95",
        "POLYGON_NA": "NINI",
        "URL": "1995_04",
        "OPERATOR": "INEOS E&P A/S",
        "Area": 44.6140533022,
        "DEPTH_LIMI": "Above 1950 m",
        "SIG": "LA1",
        "Operator_1": "INEOS E&P A/S"
      },
      "geometry": {
        "type": "Polygon",
        "coordinates": [
          [
            [
              5.26524,
              56.6077
            ],
            [
              5.25691,
              56.61603
            ],
            [
              5.25691,
              56.64104
            ],
            [
              5.27357,
              56.6452
            ],
            [
              5.29024,
              56.6452
            ],
            [
              5.31524,
              56.64937
            ],
            [
              5.31524,
              56.6577
            ],
            [
              5.36524,
              56.67437
            ],
            [
              5.37357,
              56.69521
            ],
            [
              5.37357,
              56.69925
            ],
            [
              5.4005,
              56.70771
            ],
            [
              5.44024,
              56.70771
            ],
            [
              5.45691,
              56.69104
            ],
            [
              5.37357,
              56.6577
            ],
            [
              5.33191,
              56.6202
            ],
            [
              5.26524,
              56.6077
            ]
          ]
        ]
      }
    },
    {
      "type": "Feature",
      "properties": {
        "LICENCE": "5/98",
        "POLYGON_NA": "HEJRE",
        "URL": "1998_05",
        "OPERATOR": "INEOS E&P A/S",
        "Area": 76.5834018048,
        "DEPTH_LIMI": "Above 6000 m",
        "SIG": "LA1",
        "Operator_1": "INEOS E&P A/S"
      },
      "geometry": {
        "type": "Polygon",
        "coordinates": [
          [
            [
              3.83605,
              56.25351
            ],
            [
              3.87772,
              56.25351
            ],
            [
              3.87772,
              56.26863
            ],
            [
              3.95598,
              56.29101
            ],
            [
              3.97355,
              56.29101
            ],
            [
              4.00689,
              56.27851
            ],
            [
              4.0569,
              56.27851
            ],
            [
              4.08189,
              56.25767
            ],
            [
              4.08189,
              56.24101
            ],
            [
              4.04019,
              56.22017
            ],
            [
              3.96522,
              56.22017
            ],
            [
              3.96522,
              56.22851
            ],
            [
              3.88188,
              56.2285
            ],
            [
              3.88188,
              56.24934
            ],
            [
              3.83605,
              56.24934
            ],
            [
              3.83605,
              56.25351
            ]
          ]
        ]
      }
    },
    {
      "type": "Feature",
      "properties": {
        "LICENCE": "1/06",
        "POLYGON_NA": "HEJRE",
        "URL": "2006_01",
        "OPERATOR": "INEOS E&P A/S",
        "Area": 22.0418487274,
        "DEPTH_LIMI": "Above 6000 m",
        "SIG": "LA1",
        "Operator_1": "INEOS E&P A/S"
      },
      "geometry": {
        "type": "MultiPolygon",
        "coordinates": [
          [
            [
              [
                3.88188,
                56.2285
              ],
              [
                3.85688,
                56.2285
              ],
              [
                3.83605,
                56.23684
              ],
              [
                3.83605,
                56.24934
              ],
              [
                3.88188,
                56.24934
              ],
              [
                3.88188,
                56.2285
              ]
            ]
          ],
          [
            [
              [
                4.07772,
                56.22017
              ],
              [
                4.04019,
                56.22017
              ],
              [
                4.08189,
                56.24101
              ],
              [
                4.08189,
                56.25767
              ],
              [
                4.0569,
                56.27851
              ],
              [
                4.08189,
                56.27851
              ],
              [
                4.12356,
                56.24934
              ],
              [
                4.12356,
                56.22851
              ],
              [
                4.07772,
                56.22017
              ]
            ]
          ]
        ]
      }
    },
    {
      "type": "Feature",
      "properties": {
        "LICENCE": "8/06",
        "URL": "2006_08_b",
        "OPERATOR": "Total E&P Danmark A/S",
        "Area": 5.82233108043,
        "SIG": "LA",
        "Operator_1": "TotalEnergies EP Danmark A/S"
      },
      "geometry": {
        "type": "Polygon",
        "coordinates": [
          [
            [
              4.54859,
              55.74933
            ],
            [
              4.49859,
              55.74933
            ],
            [
              4.49859,
              55.766
            ],
            [
              4.54859,
              55.766
            ],
            [
              4.54859,
              55.74933
            ]
          ]
        ]
      }
    },
    {
      "type": "Feature",
      "properties": {
        "LICENCE": "6/95",
        "POLYGON_NA": "SIRI",
        "URL": "1995_06",
        "OPERATOR": "INEOS E&P A/S",
        "Area": 63.1060445258,
        "DEPTH_LIMI": "Above 2260 m",
        "SIG": "LA1",
        "Operator_1": "INEOS E&P A/S"
      },
      "geometry": {
        "type": "Polygon",
        "coordinates": [
          [
            [
              4.8569,
              56.49936
            ],
            [
              4.8819,
              56.49936
            ],
            [
              4.8819,
              56.52019
            ],
            [
              4.96524,
              56.52019
            ],
            [
              4.96524,
              56.49936
            ],
            [
              5.11524,
              56.5327
            ],
            [
              5.11524,
              56.51603
            ],
            [
              5.06524,
              56.49936
            ],
            [
              5.04024,
              56.49936
            ],
            [
              4.99857,
              56.48269
            ],
            [
              4.99857,
              56.46603
            ],
            [
              4.97357,
              56.46186
            ],
            [
              4.94857,
              56.46603
            ],
            [
              4.9069,
              56.46603
            ],
            [
              4.8819,
              56.45769
            ],
            [
              4.8569,
              56.46602
            ],
            [
              4.8569,
              56.49936
            ]
          ]
        ]
      }
    },
    {
      "type": "Feature",
      "properties": {
        "LICENCE": "4/16",
        "URL": "2016_04",
        "OPERATOR": "Dana Petroleum Denmark BV",
        "Area": 4.5302175907,
        "DEPTH_LIMI": "Above 4000 m",
        "SIG": "7R1",
        "Operator_1": "Dana Petroleum Denmark BV"
      },
      "geometry": {
        "type": "Polygon",
        "coordinates": [
          [
            [
              4.8486,
              55.45488
            ],
            [
              4.81907,
              55.45488
            ],
            [
              4.81527,
              55.45727
            ],
            [
              4.81527,
              55.47432
            ],
            [
              4.8486,
              55.47432
            ],
            [
              4.8486,
              55.45488
            ]
          ]
        ]
      }
    },
    {
      "type": "Feature",
      "properties": {
        "LICENCE": "12/06",
        "URL": "2006_12",
        "OPERATOR": "Dana Petroleum Denmark BV",
        "Area": 85.4028469514,
        "DEPTH_LIMI": "Above 4000 m",
        "SIG": "LA1",
        "Operator_1": "Dana Petroleum Denmark BV"
      },
      "geometry": {
        "type": "MultiPolygon",
        "coordinates": [
          [
            [
              [
                4.8236,
                55.44516
              ],
              [
                4.8236,
                55.44099
              ],
              [
                4.84027,
                55.44099
              ],
              [
                4.84027,
                55.43266
              ],
              [
                4.85277,
                55.43266
              ],
              [
                4.85277,
                55.42849
              ],
              [
                4.85694,
                55.42849
              ],
              [
                4.85694,
                55.41599
              ],
              [
                4.86527,
                55.41599
              ],
              [
                4.86527,
                55.35878
              ],
              [
                4.75694,
                55.4003
              ],
              [
                4.75694,
                55.42432
              ],
              [
                4.76527,
                55.42432
              ],
              [
                4.76527,
                55.43265
              ],
              [
                4.7736,
                55.43265
              ],
              [
                4.7736,
                55.44099
              ],
              [
                4.79027,
                55.44099
              ],
              [
                4.79027,
                55.44516
              ],
              [
                4.8236,
                55.44516
              ]
            ]
          ],
          [
            [
              [
                4.76527,
                55.54933
              ],
              [
                4.86527,
                55.51599
              ],
              [
                4.88194,
                55.51599
              ],
              [
                4.88194,
                55.49933
              ],
              [
                4.85694,
                55.49933
              ],
              [
                4.85694,
                55.48266
              ],
              [
                4.8486,
                55.48266
              ],
              [
                4.8486,
                55.47432
              ],
              [
                4.81527,
                55.47432
              ],
              [
                4.81527,
                55.45727
              ],
              [
                4.79027,
                55.47432
              ],
              [
                4.79027,
                55.48266
              ],
              [
                4.78194,
                55.48266
              ],
              [
                4.78194,
                55.49099
              ],
              [
                4.7736,
                55.49099
              ],
              [
                4.7736,
                55.49933
              ],
              [
                4.7486,
                55.49932
              ],
              [
                4.7486,
                55.51599
              ],
              [
                4.76527,
                55.51599
              ],
              [
                4.76527,
                55.54933
              ]
            ]
          ]
        ]
      }
    },
    {
      "type": "Feature",
      "properties": {
        "LICENCE": "3/09",
        "POLYGON_NA": "SOLSORT",
        "URL": "2009_03",
        "OPERATOR": "INEOS E&P A/S",
        "Area": 12.8238077803,
        "DEPTH_LIMI": "Above 3200 m",
        "SIG": "LA1",
        "Operator_1": "INEOS E&P A/S"
      },
      "geometry": {
        "type": "Polygon",
        "coordinates": [
          [
            [
              4.25606,
              56.12372
            ],
            [
              4.21856,
              56.12371
            ],
            [
              4.26855,
              56.14983
            ],
            [
              4.29772,
              56.18316
            ],
            [
              4.29772,
              56.12483
            ],
            [
              4.25494,
              56.12483
            ],
            [
              4.25606,
              56.12372
            ]
          ]
        ]
      }
    },
    {
      "type": "Feature",
      "properties": {
        "LICENCE": "4/98",
        "URL": "1998_04",
        "OPERATOR": "INEOS E&P A/S",
        "Area": 20.0169107189,
        "DEPTH_LIMI": "Above 3200 m",
        "SIG": "LA1",
        "Operator_1": "INEOS E&P A/S"
      },
      "geometry": {
        "type": "Polygon",
        "coordinates": [
          [
            [
              4.34495,
              56.1265
            ],
            [
              4.26439,
              56.11649
            ],
            [
              4.26304,
              56.11649
            ],
            [
              4.25494,
              56.12483
            ],
            [
              4.29772,
              56.12483
            ],
            [
              4.29772,
              56.18316
            ],
            [
              4.33105,
              56.18316
            ],
            [
              4.33106,
              56.17483
            ],
            [
              4.34495,
              56.1665
            ],
            [
              4.34495,
              56.1265
            ]
          ]
        ]
      }
    }
  ]
}
